NORAD_CAT_ID,OBJECT_NAME,OBJECT_TYPE,EPOCH,MEAN_MOTION,ECCENTRICITY,INCLINATION,RA_OF_ASC_NODE,ARG_OF_PERICENTER,MEAN_ANOMALY,BSTAR,MEAN_MOTION_DOT,MEAN_MOTION_DDOT,TLE_LINE0,TLE_LINE1,TLE_LINE2,SEMIMAJOR_AXIS,PERIOD,APOGEE,PERIGEE,DECAYED
49131.0,STARLINK-3096,PAYLOAD,2021-11-25 20:00:01,15.6974531,0.0003509,69.9985,282.5216,278.9206,64.2697,0.00042532,0.00050862,0.0,0 STARLINK-3096,1 49131U 21082B   21329.83334491  .00050862  00000-0  42532-3 0  9993,2 49131  69.9985 282.5216 0003509 278.9206  64.2697 15.69745310  3674,6737.763000000001,91.735,361.992,357.26300000000015,0.0
49131.0,STARLINK-3096,PAYLOAD,2021-11-26 06:00:02,15.69716242,0.0003802,69.9981,281.3502,284.4887,252.7101,9.8037e-05,0.00011492,0.0,0 STARLINK-3096,1 49131U 21082B   21330.25002315  .00011492  00000-0  98037-4 0  9996,2 49131  69.9981 281.3502 0003802 284.4887 252.7101 15.69716242 11572,6737.846,91.736,362.273,357.149,0.0
49131.0,STARLINK-3096,PAYLOAD,2021-11-26 14:00:01,15.6972445,0.0003772,69.9978,280.4131,280.8797,339.4127,-5.9809e-05,-7.339e-05,0.0,0 STARLINK-3096,1 49131U 21082B   21330.58335648 -.00007339  00000-0 -59809-4 0  9991,2 49131  69.9978 280.4131 0003772 280.8797 339.4127 15.69724450  3686,6737.821999999999,91.736,362.229,357.146,0.0
49131.0,STARLINK-3096,PAYLOAD,2021-11-26 22:00:00,15.69756011,0.0003808,69.998,279.4761,277.3652,65.9481,-7.006800000000001e-05,-8.572e-05,0.0,0 STARLINK-3096,1 49131U 21082B   21330.91667824 -.00008572  00000-0 -70068-4 0  9992,2 49131  69.9980 279.4761 0003808 277.3652  65.9481 15.69756011  3689,6737.732,91.734,362.163,357.031,0.0
49131.0,STARLINK-3096,PAYLOAD,2021-11-27 14:00:01,15.69777192,0.0003642,69.9979,277.60200000000003,280.3281,229.2557,-0.00025984,-0.00031154,0.0,0 STARLINK-3096,1 49131U 21082B   21331.58334491 -.00031154  00000-0 -25984-3 0  9995,2 49131  69.9979 277.6020 0003642 280.3281 229.2557 15.69777192 11785,6737.670999999999,91.733,361.99,357.083,0.0
49131.0,STARLINK-3096,PAYLOAD,2021-11-27 22:00:00,15.69772292,0.0003498999999999,69.9981,276.6651,277.6551,315.0775,-0.00045859,-0.00054655,0.0,0 STARLINK-3096,1 49131U 21082B   21331.91667824 -.00054655  00000-0 -45859-3 0  9995,2 49131  69.9981 276.6651 0003499 277.6551 315.0775 15.69772292  3677,6737.686,91.733,361.908,357.1930000000001,0.0
49131.0,STARLINK-3096,PAYLOAD,2021-11-28 14:00:01,15.69739565,0.0003485,69.9975,274.7909,278.5972,120.3896,0.00021509,0.00025533,0.0,0 STARLINK-3096,1 49131U 21082B   21332.58334491  .00025533  00000-0  21509-3 0  9997,2 49131  69.9975 274.7909 0003485 278.5972 120.3896 15.69739565 11943,6737.779,91.735,361.992,357.296,0.0
49131.0,STARLINK-3096,PAYLOAD,2021-11-28 22:00:01,15.69809119,0.0003549,69.9977,273.8537,276.2925,205.8814,-0.00043506,-0.00051958,0.0,0 STARLINK-3096,1 49131U 21082B   21332.91668981 -.00051958  00000-0 -43506-3 0  9991,2 49131  69.9977 273.8537 0003549 276.2925 205.8814 15.69809119  3680,6737.58,91.731,361.836,357.05400000000014,0.0
49131.0,STARLINK-3096,PAYLOAD,2021-11-29 14:00:01,15.69760507,0.0003562,69.9977,271.9795,278.0631,10.3517,-0.00036511,-0.00043594,0.0,0 STARLINK-3096,1 49131U 21082B   21333.58334491 -.00043594  00000-0 -36511-3 0  9996,2 49131  69.9977 271.9795 0003562 278.0631  10.3517 15.69760507 12107,6737.719,91.734,361.984,357.184,0.0
49131.0,STARLINK-3096,PAYLOAD,2021-11-29 22:00:00,15.69748113,0.0003458,69.9982,271.0426,276.3079,95.2257,-0.00023856,-0.00028593,0.0,0 STARLINK-3096,1 49131U 21082B   21333.91667824 -.00028593  00000-0 -23856-3 0  9992,2 49131  69.9982 271.0426 0003458 276.3079  95.2257 15.69748113  3704,6737.755,91.734,361.95,357.29,0.0
49131.0,STARLINK-3096,PAYLOAD,2021-11-30 06:00:00,15.69706712,0.0003568,69.998,270.1054,281.5025,173.1438,0.00057037,0.00068315,0.0,0 STARLINK-3096,1 49131U 21082B   21334.25001157  .00068315  00000-0  57037-3 0  9993,2 49131  69.9980 270.1054 0003568 281.5025 173.1438 15.69706712 12201,6737.873000000001,91.737,362.142,357.334,0.0
49131.0,STARLINK-3096,PAYLOAD,2021-11-30 10:00:00,15.69776229,0.000364,69.9976,269.6369,279.9206,36.2545,-0.00074216,-0.0008799,0.0,0 STARLINK-3096,1 49131U 21082B   21334.41667824 -.00087990  00000-0 -74216-3 0  9990,2 49131  69.9976 269.6369 0003640 279.9206  36.2545 15.69776229  3670,6737.674,91.733,361.992,357.087,0.0
49131.0,STARLINK-3096,PAYLOAD,2021-11-30 16:00:00,15.69683803,0.0003679,69.9978,268.9341,274.4896,14.0441,0.00025356,0.00030085,0.0,0 STARLINK-3096,1 49131U 21082B   21334.66667824  .00030085  00000-0  25356-3 0  9999,2 49131  69.9978 268.9341 0003679 274.4896  14.0441 15.69683803 12271,6737.939,91.738,362.283,357.325,0.0
49131.0,STARLINK-3096,PAYLOAD,2021-11-30 22:00:00,15.69719977,0.0003781,69.9981,268.2312,274.3597,346.4616,-0.00014847,-0.00017879,0.0,0 STARLINK-3096,1 49131U 21082B   21334.91667824 -.00017879  00000-0 -14847-3 0  9998,2 49131  69.9981 268.2312 0003781 274.3597 346.4616 15.69719977  3680,6737.835,91.736,362.24800000000016,357.153,0.0
49131.0,STARLINK-3096,PAYLOAD,2021-12-01 14:00:01,15.69709769,0.0003673,69.9984,266.3571,275.0175,151.9835,0.00050975,0.00060987,0.0,0 STARLINK-3096,1 49131U 21082B   21335.58334491  .00060987  00000-0  50975-3 0  9991,2 49131  69.9984 266.3571 0003673 275.0175 151.9835 15.69709769  3690,6737.864000000001,91.737,362.204,357.255,0.0
49131.0,STARLINK-3096,PAYLOAD,2021-12-01 22:00:00,15.69777452,0.0003714,69.9989,265.4202,274.2488,235.847,-7.0569e-05,-8.638e-05,0.0,0 STARLINK-3096,1 49131U 21082B   21335.91667824 -.00008638  00000-0 -70569-4 0  9996,2 49131  69.9989 265.4202 0003714 274.2488 235.8470 15.69777452 12466,6737.670999999999,91.733,362.038,357.033,0.0
49131.0,STARLINK-3096,PAYLOAD,2021-12-02 14:00:01,15.69761135,0.0003543999999999,69.9986,263.546,273.5127,42.9273,-0.00013957,-0.00016849,0.0,0 STARLINK-3096,1 49131U 21082B   21336.58334491 -.00016849  00000-0 -13957-3 0  9991,2 49131  69.9986 263.5460 0003544 273.5127  42.9273 15.69761135  3684,6737.717,91.734,361.97,357.195,0.0
49131.0,STARLINK-3096,PAYLOAD,2021-12-02 22:00:00,15.69783047,0.0003474,69.9988,262.6089,273.8498,125.7025,-0.00046639,-0.000556,0.0,0 STARLINK-3096,1 49131U 21082B   21336.91667824 -.00055600  00000-0 -46639-3 0  9998,2 49131  69.9988 262.6089 0003474 273.8498 125.7025 15.69783047  3668,6737.655,91.732,361.86,357.17900000000014,0.0
49131.0,STARLINK-3096,PAYLOAD,2021-12-03 06:00:00,15.69725971,0.000332,69.9987,261.6718,279.8572,202.856,4.0545e-05,4.626e-05,0.0,0 STARLINK-3096,1 49131U 21082B   21337.25001157  .00004626  00000-0  40545-4 0  9998,2 49131  69.9987 261.6718 0003320 279.8572 202.8560 15.69725971 12678,6737.818,91.736,361.92,357.446,0.0
49131.0,STARLINK-3096,PAYLOAD,2021-12-03 14:00:01,15.69696858,0.0003194,69.9991,260.7348,274.228,291.5947,0.00053153,0.00063582,0.0,0 STARLINK-3096,1 49131U 21082B   21337.58334491  .00063582  00000-0  53153-3 0  9998,2 49131  69.9991 260.7348 0003194 274.2280 291.5947 15.69696858  3682,6737.901,91.737,361.918,357.61400000000015,0.0
49131.0,STARLINK-3096,PAYLOAD,2021-12-03 22:00:00,15.69765065,0.0003237,69.9995,259.798,273.3565,15.5443,-0.00018365,-0.00022092,0.0,0 STARLINK-3096,1 49131U 21082B   21337.91667824 -.00022092  00000-0 -18365-3 0  9993,2 49131  69.9995 259.7980 0003237 273.3565  15.5443 15.69765065  3660,6737.706,91.733,361.752,357.39,0.0
49131.0,STARLINK-3096,PAYLOAD,2021-12-04 06:00:00,15.69744654,0.0003286,69.9991,258.8609,279.1331,92.9061,0.00045651,0.00054629,0.0,0 STARLINK-3096,1 49131U 21082B   21338.25001157  .00054629  00000-0  45651-3 0  9999,2 49131  69.9991 258.8609 0003286 279.1331  92.9061 15.69744654  3715,6737.765,91.735,361.844,357.416,0.0
49131.0,STARLINK-3096,PAYLOAD,2021-12-04 12:00:00,15.69769381,0.0003207,69.999,258.1582,273.9615,70.4338,5.0371e-05,5.81e-05,0.0,0 STARLINK-3096,1 49131U 21082B   21338.50001157  .00005810  00000-0  50371-4 0  9991,2 49131  69.9990 258.1582 0003207 273.9615  70.4338 15.69769381 12876,6737.694,91.733,361.72,357.398,0.0
49131.0,STARLINK-3096,PAYLOAD,2021-12-04 22:00:00,15.69837277,0.0003376,69.9991,256.9871,272.5957,265.7305,-0.0011015,-0.00130161,0.0,0 STARLINK-3096,1 49131U 21082B   21338.91667824 -.00130161  00000-0 -11015-2 0  9995,2 49131  69.9991 256.9871 0003376 272.5957 265.7305 15.69837277  3665,6737.5,91.729,361.639,357.09,0.0
49131.0,STARLINK-3096,PAYLOAD,2021-12-05 06:00:02,15.69303934,0.0003378,69.9994,256.0521,276.2972,345.2907,0.0054495,0.00694425,0.0,0 STARLINK-3096,1 49131U 21082B   21339.25002315  .00694425  00000-0  54495-2 0  9996,2 49131  69.9994 256.0521 0003378 276.2972 345.2907 15.69303934 12997,6739.026,91.76,363.167,358.615,0.0
49131.0,STARLINK-3096,PAYLOAD,2021-12-05 14:00:01,15.69718584,0.0003429,69.9988,255.1131,271.5615,73.0651,0.00066362,0.00079664,0.0,0 STARLINK-3096,1 49131U 21082B   21339.58334491  .00079664  00000-0  66362-3 0  9994,2 49131  69.9988 255.1131 0003429 271.5615  73.0651 15.69718584  3696,6737.839,91.736,362.015,357.394,0.0
49131.0,STARLINK-3096,PAYLOAD,2021-12-05 22:00:00,15.69806693,0.0003431,69.9991,254.1762,272.4616,155.2848,-0.00044392,-0.00052998,0.0,0 STARLINK-3096,1 49131U 21082B   21339.91667824 -.00052998  00000-0 -44392-3 0  9992,2 49131  69.9991 254.1762 0003431 272.4616 155.2848 15.69806693 13098,6737.587,91.731,361.764,357.14,0.0
49131.0,STARLINK-3096,PAYLOAD,2021-12-06 14:00:01,15.69709446,0.0003351,69.9985,252.3022,270.5463,323.5793,-0.00014896,-0.00017927,0.0,0 STARLINK-3096,1 49131U 21082B   21340.58335648 -.00017927  00000-0 -14896-3 0  9992,2 49131  69.9985 252.3022 0003351 270.5463 323.5793 15.69709446  3681,6737.865,91.737,361.98800000000006,357.472,0.0
49131.0,STARLINK-3096,PAYLOAD,2021-12-06 22:00:00,15.69717579,0.0003478,69.9983,251.3655,271.665,45.4663,-0.00030265,-0.0003614,0.0,0 STARLINK-3096,1 49131U 21082B   21340.91667824 -.00036140  00000-0 -30265-3 0  9999,2 49131  69.9983 251.3655 0003478 271.6650  45.4663 15.69717579  3693,6737.842,91.736,362.05,357.36400000000015,0.0
